NORAD_CAT_ID,OBJECT_NAME,OBJECT_TYPE,EPOCH,MEAN_MOTION,ECCENTRICITY,INCLINATION,RA_OF_ASC_NODE,ARG_OF_PERICENTER,MEAN_ANOMALY,BSTAR,MEAN_MOTION_DOT,MEAN_MOTION_DDOT,TLE_LINE0,TLE_LINE1,TLE_LINE2,SEMIMAJOR_AXIS,PERIOD,APOGEE,PERIGEE,DECAYED
53784.0,STARLINK-4687,PAYLOAD,2024-07-22 15:24:24,15.0883986,0.0001192,53.2183,65.4293,94.7765,265.3364,6.615e-05,7.65e-06,0.0,0 STARLINK-4687,1 53784U 22111M   24204.64195197  .00000765  00000-0  66150-4 0  9998,2 53784  53.2183  65.4293 0001192  94.7765 265.3364 15.08839860103866,6917.881,95.438,540.57,538.921,0.0
53784.0,STARLINK-4687,PAYLOAD,2024-07-23 07:18:15,15.08851846,0.0001435,53.2194,62.4565,65.9202,294.194,9.4093e-05,1.21e-05,0.0,0 STARLINK-4687,1 53784U 22111M   24205.30434309  .00001210  00000-0  94093-4 0  9996,2 53784  53.2194  62.4565 0001435  65.9202 294.1940 15.08851846103153,6917.844,95.437,540.702,538.716,0.0
53784.0,STARLINK-4687,PAYLOAD,2024-07-24 00:47:31,15.08837107,0.0002068,53.2186,59.1938,96.6183,263.5045,-2.401e-05,-6.7e-06,0.0,0 STARLINK-4687,1 53784U 22111M   24206.03300013 -.00000670  00000-0 -24010-4 0  9994,2 53784  53.2186  59.1938 0002068  96.6183 263.5045 15.08837107103265,6917.889,95.438,541.185,538.324,0.0
53784.0,STARLINK-4687,PAYLOAD,2024-07-25 13:21:22,15.08844587,0.0002224,53.2184,52.3531,85.5446,274.58,3.607e-05,2.86e-06,0.0,0 STARLINK-4687,1 53784U 22111M   24207.55651364  .00000286  00000-0  36070-4 0  9990,2 53784  53.2184  52.3531 0002224  85.5446 274.5800 15.08844587103496,6917.866,95.437,541.27,538.193,0.0
53784.0,STARLINK-4687,PAYLOAD,2024-07-25 19:42:55,15.08831824,7.14e-05,53.2168,51.1612,280.2256,79.8656,0.00012296,1.669e-05,0.0,0 STARLINK-4687,1 53784U 22111M   24207.82147690  .00001669  00000-0  12296-3 0  9991,2 53784  53.2168  51.1612 0000714 280.2256  79.8656 15.08831824103530,6917.905,95.438,540.264,539.276,0.0
53784.0,STARLINK-4687,PAYLOAD,2024-07-26 19:33:41,15.08846594,9.49e-05,53.2167,46.7012,80.3203,279.7896,0.00017905,2.563e-05,0.0,0 STARLINK-4687,1 53784U 22111M   24208.81506856  .00002563  00000-0  17905-3 0  9990,2 53784  53.2167  46.7012 0000949  80.3203 279.7896 15.08846594103687,6917.86,95.437,540.382,539.069,0.0
53784.0,STARLINK-4687,PAYLOAD,2024-07-26 21:09:05,15.08850966,0.000107,53.2169,46.4042,79.7709,280.3404,0.00011529,1.548e-05,0.0,0 STARLINK-4687,1 53784U 22111M   24208.88130788  .00001548  00000-0  11529-3 0  9992,2 53784  53.2169  46.4042 0001070  79.7709 280.3404 15.08850966104501,6917.847,95.437,540.452,538.972,0.0
53784.0,STARLINK-4687,PAYLOAD,2024-07-27 22:35:16,15.08836911,0.0001251,53.2183,41.6444,92.6902,267.4233,-8.0283e-05,-1.565e-05,0.0,0 STARLINK-4687,1 53784U 22111M   24209.94116133 -.00001565  00000-0 -80283-4 0  9993,2 53784  53.2183  41.6444 0001251  92.6902 267.4233 15.08836911103857,6917.89,95.438,540.62,538.889,0.0
53784.0,STARLINK-4687,PAYLOAD,2024-07-28 19:15:16,15.08847115,0.0001197,53.2183,37.7795,94.2941,265.8188,4.7725e-05,4.72e-06,0.0,0 STARLINK-4687,1 53784U 22111M   24210.80227180  .00000472  00000-0  47725-4 0  9993,2 53784  53.2183  37.7795 0001197  94.2941 265.8188 15.08847115103985,6917.859,95.437,540.552,538.896,0.0
53784.0,STARLINK-4687,PAYLOAD,2024-07-28 20:50:39,15.08849502,0.0001206,53.2185,37.4818,95.6974,264.4156,5.982e-05,6.65e-06,0.0,0 STARLINK-4687,1 53784U 22111M   24210.86851046  .00000665  00000-0  59820-4 0  9996,2 53784  53.2185  37.4818 0001206  95.6974 264.4156 15.08849502104806,6917.851,95.437,540.551,538.882,0.0
53784.0,STARLINK-4687,PAYLOAD,2024-07-29 12:44:31,15.08839473,0.0001329,53.2189,34.5086,99.8177,260.2965,0.00012642,1.725e-05,0.0,0 STARLINK-4687,1 53784U 22111M   24211.53091626  .00001725  00000-0  12642-3 0  9999,2 53784  53.2189  34.5086 0001329  99.8177 260.2965 15.08839473104091,6917.882,95.438,540.666,538.828,0.0
53784.0,STARLINK-4687,PAYLOAD,2024-07-29 20:41:26,15.08845521,0.0001286,53.219,33.0213,82.7053,277.4085,0.00015207,2.133e-05,0.0,0 STARLINK-4687,1 53784U 22111M   24211.86211255  .00002133  00000-0  15207-3 0  9991,2 53784  53.2190  33.0213 0001286  82.7053 277.4085 15.08845521104954,6917.864,95.437,540.618,538.839,0.0
53784.0,STARLINK-4687,PAYLOAD,2024-07-30 10:59:56,15.08831546,0.0001811,53.2156,30.3482,71.3272,288.7917,3.8271e-05,3.21e-06,0.0,0 STARLINK-4687,1 53784U 22111M   24212.45828791  .00000321  00000-0  38271-4 0  9990,2 53784  53.2156  30.3482 0001811  71.3272 288.7917 15.08831546104237,6917.906,95.438,541.024,538.518,0.0
53784.0,STARLINK-4687,PAYLOAD,2024-07-30 18:56:52,15.08830034,0.0001609,53.2178,28.858,80.8015,279.3159,-7.6693e-05,-1.508e-05,0.0,0 STARLINK-4687,1 53784U 22111M   24212.78949249 -.00001508  00000-0 -76693-4 0  9998,2 53784  53.2178  28.8580 0001609  80.8015 279.3159 15.08830034105097,6917.911,95.438,540.889,538.663,0.0
53784.0,STARLINK-4687,PAYLOAD,2024-07-31 04:29:11,15.08827381,0.0001695,53.2184,27.0734,94.3956,265.723,-5.829e-05,-1.215e-05,0.0,0 STARLINK-4687,1 53784U 22111M   24213.18693594 -.00001215  00000-0 -58290-4 0  9990,2 53784  53.2184  27.0734 0001695  94.3956 265.7230 15.08827381104342,6917.919,95.438,540.957,538.611,0.0
53784.0,STARLINK-4687,PAYLOAD,2024-07-31 12:26:05,15.08844317,0.0001056,53.214,25.5857,72.9783,287.1325,6.4509e-05,7.39e-06,0.0,0 STARLINK-4687,1 53784U 22111M   24213.51812116  .00000739  00000-0  64509-4 0  9998,2 53784  53.2140  25.5857 0001056  72.9783 287.1325 15.08844317104390,6917.867,95.437,540.463,539.002,0.0
53784.0,STARLINK-4687,PAYLOAD,2024-07-31 17:12:14,15.08848252,0.0001104,53.2159,24.6915,58.1827,301.9272,7.8835e-05,9.67e-06,0.0,0 STARLINK-4687,1 53784U 22111M   24213.71683832  .00000967  00000-0  78835-4 0  9991,2 53784  53.2159  24.6915 0001104  58.1827 301.9272 15.08848252105236,6917.855,95.437,540.484,538.956,0.0
53784.0,STARLINK-4687,PAYLOAD,2024-08-01 10:41:29,15.08840415,0.0001049,53.2177,21.4247,89.9518,270.1595,0.00028534,4.256e-05,0.0,0 STARLINK-4687,1 53784U 22111M   24214.44547734  .00004256  00000-0  28534-3 0  9997,2 53784  53.2177  21.4247 0001049  89.9518 270.1595 15.08840415105346,6917.879,95.438,540.47,539.018,0.0
53784.0,STARLINK-4687,PAYLOAD,2024-08-01 18:38:24,15.08845977,0.0001542,53.2183,19.9393,97.7741,262.3426,0.00028336,4.225e-05,0.0,0 STARLINK-4687,1 53784U 22111M   24214.77667398  .00004225  00000-0  28336-3 0  9998,2 53784  53.2183  19.9393 0001542  97.7741 262.3426 15.08845977104589,6917.862,95.437,540.794,538.66,0.0
53784.0,STARLINK-4687,PAYLOAD,2024-08-02 04:10:43,15.08843752,9.78e-05,53.216,18.1499,69.7831,290.3266,0.00011146,1.487e-05,0.0,0 STARLINK-4687,1 53784U 22111M   24215.17411912  .00001487  00000-0  11146-3 0  9990,2 53784  53.2160  18.1499 0000978  69.7831 290.3266 15.08843752104642,6917.869,95.437,540.41,539.057,0.0
53784.0,STARLINK-4687,PAYLOAD,2024-08-02 20:04:35,15.08846606,0.0001123,53.218,15.1777,87.7067,272.4054,-1.1193e-05,-4.66e-06,0.0,0 STARLINK-4687,1 53784U 22111M   24215.83652091 -.00000466  00000-0 -11193-4 0  9999,2 53784  53.2180  15.1777 0001123  87.7067 272.4054 15.08846606105552,6917.86,95.437,540.502,538.948,0.0
53784.0,STARLINK-4687,PAYLOAD,2024-08-03 04:01:31,15.08841034,0.0001198,53.2176,13.6944,80.5415,279.5713,4.4358e-07,-2.81e-06,0.0,0 STARLINK-4687,1 53784U 22111M   24216.16772047 -.00000281  00000-0  44358-6 0  9995,2 53784  53.2176  13.6944 0001198  80.5415 279.5713 15.08841034104791,6917.877,95.437,540.571,538.913,0.0
53784.0,STARLINK-4687,PAYLOAD,2024-08-03 15:09:12,15.08849263,0.0001188,53.218,11.6092,90.5859,269.5269,5.6739e-05,6.15e-06,0.0,0 STARLINK-4687,1 53784U 22111M   24216.63139568  .00000615  00000-0  56739-4 0  9996,2 53784  53.2180  11.6092 0001188  90.5859 269.5269 15.08849263105675,6917.852,95.437,540.539,538.895,0.0
53784.0,STARLINK-4687,PAYLOAD,2024-08-03 19:55:21,15.08857348,0.0001209,53.218,10.7157,109.9569,250.1554,0.00019701,2.85e-05,0.0,0 STARLINK-4687,1 53784U 22111M   24216.83011068  .00002850  00000-0  19701-3 0  9992,2 53784  53.2180  10.7157 0001209 109.9569 250.1554 15.08857348104893,6917.827,95.436,540.529,538.856,0.0
53784.0,STARLINK-4687,PAYLOAD,2024-08-04 03:52:18,15.08839362,0.0001167,53.2181,9.2316,99.4664,260.646,9.2021e-05,1.177e-05,0.0,0 STARLINK-4687,1 53784U 22111M   24217.16132009  .00001177  00000-0  92021-4 0  9996,2 53784  53.2181   9.2316 0001167  99.4664 260.6460 15.08839362104940,6917.882,95.438,540.555,538.94,0.0
53784.0,STARLINK-4687,PAYLOAD,2024-08-04 15:00:00,15.08843697,0.0001456,53.2177,7.1507,96.7727,263.3431,0.00027762,4.134e-05,0.0,0 STARLINK-4687,1 53784U 22111M   24217.62500199  .00004134  00000-0  27762-3 0  9991,2 53784  53.2177   7.1507 0001456  96.7727 263.3431 15.08843697105827,6917.869,95.437,540.741,538.727,0.0
53784.0,STARLINK-4687,PAYLOAD,2024-08-04 16:35:23,15.08847463,0.0001441,53.2175,6.8518,101.7573,258.3581,0.00034253,5.169e-05,0.0,0 STARLINK-4687,1 53784U 22111M   24217.69123948  .00005169  00000-0  34253-3 0  9993,2 53784  53.2175   6.8518 0001441 101.7573 258.3581 15.08847463105839,6917.858,95.437,540.719,538.726,0.0
53784.0,STARLINK-4687,PAYLOAD,2024-08-05 13:15:23,15.08852665,0.0001507,53.2186,2.9861,107.3879,252.7278,0.0003103,4.656e-05,0.0,0 STARLINK-4687,1 53784U 22111M   24218.55235538  .00004656  00000-0  31030-3 0  9998,2 53784  53.2186   2.9861 0001507 107.3879 252.7278 15.08852665105159,6917.842,95.437,540.749,538.664,0.0
53784.0,STARLINK-4687,PAYLOAD,2024-08-05 16:26:09,15.08861494,0.0001287,53.2179,2.3942,89.6501,270.4638,0.00074665,0.00011622,0.0,0 STARLINK-4687,1 53784U 22111M   24218.68483466  .00011622  00000-0  74665-3 0  9999,2 53784  53.2179   2.3942 0001287  89.6501 270.4638 15.08861494105982,6917.815,95.436,540.57,538.789,0.0
53784.0,STARLINK-4687,PAYLOAD,2024-08-06 14:41:34,15.08833858,0.000149,53.2189,358.2293,103.1116,257.0042,9.0873e-07,-2.73e-06,0.0,0 STARLINK-4687,1 53784U 22111M   24219.61220301 -.00000273  00000-0  90873-6 0  9993,2 53784  53.2189 358.2293 0001490 103.1116 257.0042 15.08833858106125,6917.899,95.438,540.795,538.733,0.0
